EUTELSAT 8 WEST B       
1 40875U 15039B   25346.13204633 -.00000056  00000+0  00000+0 0  9994
2 40875   0.0653   6.6681 0004205 255.3415 218.6251  1.00271632 37785
EUTELSAT 9B             
1 41310U 16005A   25345.92147712  .00000070  00000+0  00000+0 0  9998
2 41310   0.0432  62.5110 0004684 207.2212 151.8834  1.00269719 36232
EUTELSAT 65 WEST A      
1 41382U 16014A   25346.12077958 -.00000267  00000+0  00000+0 0  9993
2 41382   0.0516  12.9642 0002529 255.5076 150.8816  1.00272100 35655
EUTELSAT 117 WEST B     
1 41589U 16038B   25345.96778094 -.00000004  00000+0  00000+0 0  9997
2 41589   0.0087 154.6922 0000599 250.9411 266.7128  1.00275784 34786
EUTELSAT 172B           
1 42741U 17029B   25346.09642611  .00000003  00000+0  00000+0 0  9997
2 42741   0.0441 151.2780 0000057 161.8007 334.6731  1.00269868 31852
EUTELSAT 7C             
1 44334U 19034B   25346.13507970  .00000058  00000+0  00000+0 0  9998
2 44334   0.0720 178.1084 0003251  65.7254 252.8644  1.00271596  4969
EUTELSAT 5 WEST B       
1 44624U 19067A   25346.13265301 -.00000033  00000+0  00000+0 0  9999
2 44624   0.0623 347.8721 0003369 274.0270 221.9383  1.00271785 22562
EUTELSAT KONNECT        
1 45027U 20005B   25346.06375257  .00000058  00000+0  00000+0 0  9991
2 45027   0.0715  96.0285 0001596 191.0796 184.0480  1.00270011 22468
